COSMOS 2456 (730)       
1 36111U 09070A   26074.09105122  .00000057  00000+0  00000+0 0  9997
2 36111  64.9557  74.1805 0006399 306.1491 122.4207  2.13103812126420
COSMOS 2457 (733)       
1 36112U 09070B   26073.05274472  .00000052  00000+0  00000+0 0  9993
2 36112  64.9407  74.0614 0002113 199.4034 280.8951  2.13101225126407
COSMOS 2460 (732)       
1 36402U 10007C   26073.12581627 -.00000024  00000+0  00000+0 0  9998
2 36402  65.4743 317.6854 0001965  24.0874 153.1858  2.13106375124709
GPS BIIF-1  (PRN 25)    
1 36585U 10022A   26073.97150345  .00000008  00000+0  00000+0 0  9990
2 36585  54.2869 212.3556 0127225  65.9481 111.6463  2.00557777115705
BEIDOU-2 IGSO-1 (C06)   
1 36828U 10036A   26073.67984281 -.00000142  00000+0  00000+0 0  9996
2 36828  54.2922 163.8180 0054578 219.4923 137.9589  1.00250102 57149
BEIDOU-2 G4 (C04)       
1 37210U 10057A   26074.24536448 -.00000111  00000+0  00000+0 0  9993
2 37210   3.4121  69.4786 0008093 213.4177 138.3151  1.00272500 56348
BEIDOU-2 IGSO-2 (C07)   
1 37256U 10068A   26069.49439653 -.00000157  00000+0  00000+0 0  9996
2 37256  47.7215 273.0501 0047490 213.2827 326.5355  1.00257833 55804
BEIDOU-2 IGSO-3 (C08)   
1 37384U 11013A   26073.84886110 -.00000147  00000+0  00000+0 0  9996
2 37384  62.2850  41.0424 0034774 190.0864 353.6522  1.00291120 54717
GSAT-8 (GAGAN/PRN 127)  
1 37605U 11022A   26074.22119118  .00000085  00000+0  00000+0 0  9992
2 37605   1.8865  83.0033 0006958 216.8111   7.7004  1.00270620 52278
BEIDOU-2 IGSO-4 (C09)   
1 37763U 11038A   26073.76842311 -.00000094  00000+0  00000+0 0  9991
2 37763  54.5890 166.5285 0155368 231.0457 145.5369  1.00264319 53706
GSAT0101 (GALILEO-PFM)  
1 37846U 11060A   26073.40826530 -.00000081  00000+0  00000+0 0  9990
2 37846  57.0247 344.3347 0004100  11.0277 349.0106  1.70475751 89508
GSAT0102 (GALILEO-FM2)  
1 37847U 11060B   26060.06318653 -.00000106  00000+0  00000+0 0  9999
2 37847  57.0301 344.6971 0005422 341.2092 154.1953  1.70475778 89286
COSMOS 2476 (744)       
1 37867U 11064A   26074.21679175  .00000060  00000+0  00000+0 0  9994
2 37867  65.2160  76.0426 0025188 241.7086 191.6717  2.13103968111761
COSMOS 2477 (745)       
1 37868U 11064B   26069.19072576  .00000019  00000+0  00000+0 0  9992
2 37868  65.2195  76.2908 0022274 243.0435 115.1265  2.13102941111649
COSMOS 2475 (743)       
1 37869U 11064C   26073.10229134  .00000056  00000+0  00000+0 0  9994
2 37869  65.2287  76.1793 0028162 254.5882 179.9345  2.13101852111746
BEIDOU-2 IGSO-5 (C10)   
1 37948U 11073A   26074.01527030 -.00000091  00000+0  00000+0 0  9999
2 37948  47.8502 272.7080 0108939 221.0218 139.4295  1.00270273 52193
LUCH 5A (SDCM/PRN 140)  
1 37951U 11074B   26074.24346461 -.00000045  00000+0  00000+0 0  9995
2 37951   8.5139  75.1828 0003379 262.7020  89.7018  1.00268919 52102
